{
"type": "FeatureCollection",
"name": "WDPA_WDOECM_poly_Aug2026_2010",
"crs": { "type": "name", "properties": { "name": "urn:ogc:def:crs:OGC:1.3:CRS84" } },
"xy_coordinate_resolution": 1e-09,
"z_coordinate_resolution": 0.0001,
"features": [
{"type":"Feature","properties":{"SITE_ID":2010,"SITE_PID":"2010","SITE_TYPE":"PA","NAME_ENG":"Ngorongoro Conservation Area","NAME":"Zone de conservation de Ngorongoro","DESIG":"World Heritage Site (natural or mixed)","DESIG_ENG":"World Heritage Site (natural or mixed)","DESIG_TYPE":"International","IUCN_CAT":"Not Applicable","INT_CRIT":"(iv);(ix);(vii);(viii);(x)","REALM":"Terrestrial","REP_M_AREA":0.0,"GIS_M_AREA":0.0,"REP_AREA":8094.4,"GIS_AREA":8271.3415470635791,"NO_TAKE":"Not Applicable","NO_TK_AREA":0.0,"STATUS":"Inscribed","STATUS_YR":1979,"GOV_TYPE":"Not Reported","GOVSUBTYPE":"Not Applicable","OWN_TYPE":"Not Reported","OWNSUBTYPE":"Not Applicable","MANG_AUTH":"Not Reported","MANG_PLAN":"Not Reported","VERIF":"State Verified","METADATAID":946,"PRNT_ISO3":"TZA","ISO3":"TZA","SUPP_INFO":"Not Applicable","CONS_OBJ":"Not Applicable","INLND_WTRS":"Not Reported","OECM_ASMT":"Not Applicable"},"geometry":{"type":"MultiPolygon","coordinates":[[[[35.93797,-2.97827],[35.9494,-3.01244],[35.97016,-3.04376],[35.97001,-3.10597],[35.96038,-3.14237],[35.96377,-3.17847],[35.94092,-3.20527],[35.90896,-3.22068],[35.87421,-3.23059],[35.84033,-3.23724],[35.80751,-3.25185],[35.77794,-3.26978],[35.74409,-3.2802],[35.71071,-3.29132],[35.66908,-3.29497],[35.63285,-3.29697],[35.59819,-3.30074],[35.56315,-3.29694],[35.53952,-3.32209],[35.5041,-3.36473],[35.4692,-3.36791],[35.43547,-3.37487],[35.40882,-3.35107],[35.39139,-3.2987],[35.35497,-3.30446],[35.32391,-3.31986],[35.30888,-3.35341],[35.27404,-3.3491],[35.24335,-3.365],[35.21489,-3.38433],[35.19955,-3.41582],[35.18655,-3.44793],[35.16015,-3.47012],[35.12888,-3.48419],[35.10581,-3.5129],[35.08097,-3.53801],[35.04535,-3.53747],[35.02646,-3.56824],[35.00333,-3.59414],[34.97549,-3.61478],[34.91281,-3.61281],[34.8868,-3.37571],[34.88583,-3.21294],[34.88213,-3.00501],[34.88066,-2.92203],[34.98515,-2.98199],[35.05635,-2.94884],[35.08669,-2.93097],[35.11884,-2.9141],[35.1822,-2.68804],[35.20219,-2.61671],[35.21395,-2.54134],[35.22354,-2.50026],[35.93914,-2.84911],[35.92868,-2.88304],[35.92472,-2.91849],[35.93797,-2.97827]]]]}}
]
}
